{
  "type": "FeatureCollection",
  "features": [
    {
      "type": "Feature",
      "properties": {
        "norad_id": 66955,
        "name": "HULIANWANG DIGUI-116",
        "group": "last-30-days",
        "lat": -21.897207079258372,
        "lon": -17.542280420359635,
        "alt_km": 1016.72865736927,
        "timestamp": "2025-12-18T23:35:47.783461+00:00",
        "meta_object_name": "HULIANWANG DIGUI-116",
        "meta_object_id": "2025-287C",
        "meta_epoch": "2025-12-17T12:36:13.610592",
        "meta_mean_motion": 13.68336268,
        "meta_eccentricity": 0.00084488,
        "meta_inclination": 86.4911,
        "meta_ra_of_asc_node": 344.4027,
        "meta_arg_of_pericenter": 182.8757,
        "meta_mean_anomaly": 177.2355,
        "meta_ephemeris_type": 0,
        "meta_classification_type": "U",
        "meta_norad_cat_id": 66955,
        "meta_element_set_no": 999,
        "meta_rev_at_epoch": 118,
        "meta_bstar": 0.00015602229,
        "meta_mean_motion_dot": 1.5e-06,
        "meta_mean_motion_ddot": 0,
        "tle_line1": "1 66955U 25287C   25351.52515753  .00000150  00000+0  15602-3 0  9996",
        "tle_line2": "2 66955  86.4911 344.4027 0008448 182.8757 177.2355 13.68336268  1184"
      },
      "geometry": {
        "type": "Point",
        "coordinates": [
          -17.542280420359635,
          -21.897207079258372
        ]
      }
    },
    {
      "type": "Feature",
      "properties": {
        "norad_id": 66956,
        "name": "HULIANWANG DIGUI-117",
        "group": "last-30-days",
        "lat": -11.831694404708966,
        "lon": -16.85306714252419,
        "alt_km": 1013.1676746127723,
        "timestamp": "2025-12-18T23:35:47.783471+00:00",
        "meta_object_name": "HULIANWANG DIGUI-117",
        "meta_object_id": "2025-287D",
        "meta_epoch": "2025-12-16T06:45:06.569856",
        "meta_mean_motion": 13.69018692,
        "meta_eccentricity": 0.00077617,
        "meta_inclination": 86.4974,
        "meta_ra_of_asc_node": 344.867,
        "meta_arg_of_pericenter": 181.5999,
        "meta_mean_anomaly": 178.5137,
        "meta_ephemeris_type": 0,
        "meta_classification_type": "U",
        "meta_norad_cat_id": 66956,
        "meta_element_set_no": 999,
        "meta_rev_at_epoch": 101,
        "meta_bstar": 2.3352809e-05,
        "meta_mean_motion_dot": 3.7e-07,
        "meta_mean_motion_ddot": 0,
        "tle_line1": "1 66956U 25287D   25350.28132604  .00000037  00000+0  23353-4 0  9996",
        "tle_line2": "2 66956  86.4974 344.8670 0007761 181.5999 178.5137 13.69018692  1016"
      },
      "geometry": {
        "type": "Point",
        "coordinates": [
          -16.85306714252419,
          -11.831694404708966
        ]
      }
    },
    {
      "type": "Feature",
      "properties": {
        "norad_id": 66957,
        "name": "HULIANWANG DIGUI-118",
        "group": "last-30-days",
        "lat": -13.53138007743148,
        "lon": -16.968129007227905,
        "alt_km": 1014.9556842374668,
        "timestamp": "2025-12-18T23:35:47.783484+00:00",
        "meta_object_name": "HULIANWANG DIGUI-118",
        "meta_object_id": "2025-287E",
        "meta_epoch": "2025-12-17T14:19:24.841920",
        "meta_mean_motion": 13.68572802,
        "meta_eccentricity": 0.00077566,
        "meta_inclination": 86.4948,
        "meta_ra_of_asc_node": 344.3824,
        "meta_arg_of_pericenter": 174.8369,
        "meta_mean_anomaly": 185.2872,
        "meta_ephemeris_type": 0,
        "meta_classification_type": "U",
        "meta_norad_cat_id": 66957,
        "meta_element_set_no": 999,
        "meta_rev_at_epoch": 119,
        "meta_bstar": 0.00015194853,
        "meta_mean_motion_dot": 1.47e-06,
        "meta_mean_motion_ddot": 0,
        "tle_line1": "1 66957U 25287E   25351.59681530  .00000147  00000+0  15195-3 0  9995",
        "tle_line2": "2 66957  86.4948 344.3824 0007756 174.8369 185.2872 13.68572802  1191"
      },
      "geometry": {
        "type": "Point",
        "coordinates": [
          -16.968129007227905,
          -13.53138007743148
        ]
      }
    },
    {
      "type": "Feature",
      "properties": {
        "norad_id": 66958,
        "name": "CZ-6A R/B",
        "group": "last-30-days",
        "lat": -20.77332226808923,
        "lon": 165.05505857261494,
        "alt_km": 951.9763962962852,
        "timestamp": "2025-12-18T23:35:47.783494+00:00",
        "meta_object_name": "CZ-6A R/B",
        "meta_object_id": "2025-287F",
        "meta_epoch": "2025-12-18T12:19:08.449536",
        "meta_mean_motion": 13.94920618,
        "meta_eccentricity": 0.01073181,
        "meta_inclination": 86.5059,
        "meta_ra_of_asc_node": 343.9056,
        "meta_arg_of_pericenter": 84.8013,
        "meta_mean_anomaly": 276.5398,
        "meta_ephemeris_type": 0,
        "meta_classification_type": "U",
        "meta_norad_cat_id": 66958,
        "meta_element_set_no": 999,
        "meta_rev_at_epoch": 134,
        "meta_bstar": 3.3439302e-05,
        "meta_mean_motion_dot": 6.6e-07,
        "meta_mean_motion_ddot": 0,
        "tle_line1": "1 66958U 25287F   25352.51329224  .00000066  00000+0  33439-4 0  9990",
        "tle_line2": "2 66958  86.5059 343.9056 0107318  84.8013 276.5398 13.94920618  1344"
      },
      "geometry": {
        "type": "Point",
        "coordinates": [
          165.05505857261494,
          -20.77332226808923
        ]
      }
    },
    {
      "type": "Feature",
      "properties": {
        "norad_id": 66959,
        "name": "STARLINK-35887",
        "group": "last-30-days",
        "lat": -20.94164406351796,
        "lon": 104.71371170959699,
        "alt_km": 317.92901432826966,
        "timestamp": "2025-12-18T23:35:47.783505+00:00",
        "meta_object_name": "STARLINK-35887",
        "meta_object_id": "2025-288A",
        "meta_epoch": "2025-12-18T14:00:03.000384",
        "meta_mean_motion": 15.85930914,
        "meta_eccentricity": 0.00015076,
        "meta_inclination": 43.0008,
        "meta_ra_of_asc_node": 131.425,
        "meta_arg_of_pericenter": 276.2637,
        "meta_mean_anomaly": 287.4073,
        "meta_ephemeris_type": 0,
        "meta_classification_type": "U",
        "meta_norad_cat_id": 66959,
        "meta_element_set_no": 999,
        "meta_rev_at_epoch": 277,
        "meta_bstar": -0.0054507655,
        "meta_mean_motion_dot": -0.01229466,
        "meta_mean_motion_ddot": 0,
        "tle_line1": "1 66959U 25288A   25352.58336806 -.01229466  00000+0 -54508-2 0  9991",
        "tle_line2": "2 66959  43.0008 131.4250 0001507 276.2637 287.4073 15.85930914  2776"
      },
      "geometry": {
        "type": "Point",
        "coordinates": [
          104.71371170959699,
          -20.94164406351796
        ]
      }
    },
    {
      "type": "Feature",
      "properties": {
        "norad_id": 66960,
        "name": "STARLINK-35879",
        "group": "last-30-days",
        "lat": -19.77105111478359,
        "lon": 106.26714490036142,
        "alt_km": 317.9222936113265,
        "timestamp": "2025-12-18T23:35:47.783514+00:00",
        "meta_object_name": "STARLINK-35879",
        "meta_object_id": "2025-288B",
        "meta_epoch": "2025-12-18T14:00:03.000384",
        "meta_mean_motion": 15.85956927,
        "meta_eccentricity": 0.00013778,
        "meta_inclination": 43.0008,
        "meta_ra_of_asc_node": 131.4204,
        "meta_arg_of_pericenter": 270.9968,
        "meta_mean_anomaly": 294.5071,
        "meta_ephemeris_type": 0,
        "meta_classification_type": "U",
        "meta_norad_cat_id": 66960,
        "meta_element_set_no": 999,
        "meta_rev_at_epoch": 277,
        "meta_bstar": -0.0054264143,
        "meta_mean_motion_dot": -0.01225903,
        "meta_mean_motion_ddot": 0,
        "tle_line1": "1 66960U 25288B   25352.58336806 -.01225903  00000+0 -54264-2 0  9994",
        "tle_line2": "2 66960  43.0008 131.4204 0001377 270.9968 294.5071 15.85956927  2779"
      },
      "geometry": {
        "type": "Point",
        "coordinates": [
          106.26714490036142,
          -19.77105111478359
        ]
      }
    },
    {
      "type": "Feature",
      "properties": {
        "norad_id": 66961,
        "name": "STARLINK-35761",
        "group": "last-30-days",
        "lat": -18.483748028598548,
        "lon": 107.9298577697243,
        "alt_km": 317.68488595679264,
        "timestamp": "2025-12-18T23:35:47.783527+00:00",
        "meta_object_name": "STARLINK-35761",
        "meta_object_id": "2025-288C",
        "meta_epoch": "2025-12-18T14:00:03.000384",
        "meta_mean_motion": 15.85987989,
        "meta_eccentricity": 0.00014841,
        "meta_inclination": 43.0008,
        "meta_ra_of_asc_node": 131.4156,
        "meta_arg_of_pericenter": 273.8837,
        "meta_mean_anomaly": 293.6171,
        "meta_ephemeris_type": 0,
        "meta_classification_type": "U",
        "meta_norad_cat_id": 66961,
        "meta_element_set_no": 999,
        "meta_rev_at_epoch": 277,
        "meta_bstar": -0.0054652649,
        "meta_mean_motion_dot": -0.01235438,
        "meta_mean_motion_ddot": 0,
        "tle_line1": "1 66961U 25288C   25352.58336806 -.01235438  00000+0 -54653-2 0  9991",
        "tle_line2": "2 66961  43.0008 131.4156 0001484 273.8837 293.6171 15.85987989  2775"
      },
      "geometry": {
        "type": "Point",
        "coordinates": [
          107.9298577697243,
          -18.483748028598548
        ]
      }
    }
  ]
}